{
  "links" : {
    "next" : "https://api.nasa.gov/neo/rest/v1/feed?start_date=2002-03-23&end_date=2002-03-23&detailed=true&api_key=t0TVs3DtDT2H8Oy2Zy8m2eVrNsAVKAexjcZXUckd",
    "prev" : "https://api.nasa.gov/neo/rest/v1/feed?start_date=2002-03-21&end_date=2002-03-21&detailed=true&api_key=t0TVs3DtDT2H8Oy2Zy8m2eVrNsAVKAexjcZXUckd",
    "self" : "https://api.nasa.gov/neo/rest/v1/feed?start_date=2002-03-22&end_date=2002-03-22&detailed=true&api_key=t0TVs3DtDT2H8Oy2Zy8m2eVrNsAVKAexjcZXUckd"
  },
  "element_count" : 5,
  "near_earth_objects" : {
    "2002-03-22" : [ {
      "links" : {
        "self" : "https://api.nasa.gov/neo/rest/v1/neo/3092487?api_key=t0TVs3DtDT2H8Oy2Zy8m2eVrNsAVKAexjcZXUckd"
      },
      "neo_reference_id" : "3092487",
      "name" : "(2001 VF75)",
      "nasa_jpl_url" : "http://ssd.jpl.nasa.gov/sbdb.cgi?sstr=3092487",
      "absolute_magnitude_h" : 21.613,
      "estimated_diameter" : {
        "kilometers" : {
          "estimated_diameter_min" : 0.1264605239,
          "estimated_diameter_max" : 0.2827743279
        },
        "meters" : {
          "estimated_diameter_min" : 126.4605238805,
          "estimated_diameter_max" : 282.7743278669
        },
        "miles" : {
          "estimated_diameter_min" : 0.0785789022,
          "estimated_diameter_max" : 0.1757077669
        },
        "feet" : {
          "estimated_diameter_min" : 414.8967451679,
          "estimated_diameter_max" : 927.7373258389
        }
      },
      "is_potentially_hazardous_asteroid" : false,
      "close_approach_data" : [ {
        "close_approach_date" : "2002-03-22",
        "epoch_date_close_approach" : 1016784000000,
        "relative_velocity" : {
          "kilometers_per_second" : "8.2313080649",
          "kilometers_per_hour" : "29632.7090334977",
          "miles_per_hour" : "18412.6130102864"
        },
        "miss_distance" : {
          "astronomical" : "0.4450808013",
          "lunar" : "173.136428833",
          "kilometers" : "66583140",
          "miles" : "41372844"
        },
        "orbiting_body" : "Earth"
      } ],
      "orbital_data" : {
        "orbit_id" : "10",
        "orbit_determination_date" : "2017-04-06 09:15:51",
        "orbit_uncertainty" : "9",
        "minimum_orbit_intersection" : ".153083",
        "jupiter_tisserand_invariant" : "3.481",
        "epoch_osculation" : "2452229.5",
        "eccentricity" : ".5579693674585248",
        "semi_major_axis" : "2.090618076485851",
        "inclination" : "19.40548057721386",
        "ascending_node_longitude" : "48.16084395136154",
        "orbital_period" : "1104.105259442794",
        "perihelion_distance" : ".9241172307516831",
        "perihelion_argument" : "74.01951758426341",
        "aphelion_distance" : "3.257118922220019",
        "perihelion_time" : "2452289.534000518468",
        "mean_anomaly" : "340.4255617824378",
        "mean_motion" : ".3260558691493603",
        "equinox" : "J2000"
      }
    }, {
      "links" : {
        "self" : "https://api.nasa.gov/neo/rest/v1/neo/3117436?api_key=t0TVs3DtDT2H8Oy2Zy8m2eVrNsAVKAexjcZXUckd"
      },
      "neo_reference_id" : "3117436",
      "name" : "(2002 EW11)",
      "nasa_jpl_url" : "http://ssd.jpl.nasa.gov/sbdb.cgi?sstr=3117436",
      "absolute_magnitude_h" : 24.8,
      "estimated_diameter" : {
        "kilometers" : {
          "estimated_diameter_min" : 0.0291443905,
          "estimated_diameter_max" : 0.0651688382
        },
        "meters" : {
          "estimated_diameter_min" : 29.1443904535,
          "estimated_diameter_max" : 65.1688382168
        },
        "miles" : {
          "estimated_diameter_min" : 0.018109479,
          "estimated_diameter_max" : 0.0404940262
        },
        "feet" : {
          "estimated_diameter_min" : 95.6180819754,
          "estimated_diameter_max" : 213.8085311752
        }
      },
      "is_potentially_hazardous_asteroid" : false,
      "close_approach_data" : [ {
        "close_approach_date" : "2002-03-22",
        "epoch_date_close_approach" : 1016784000000,
        "relative_velocity" : {
          "kilometers_per_second" : "10.3930388533",
          "kilometers_per_hour" : "37414.9398717454",
          "miles_per_hour" : "23248.1886108631"
        },
        "miss_distance" : {
          "astronomical" : "0.0162429223",
          "lunar" : "6.3184971809",
          "kilometers" : "2429906.75",
          "miles" : "1509874"
        },
        "orbiting_body" : "Earth"
      } ],
      "orbital_data" : {
        "orbit_id" : "12",
        "orbit_determination_date" : "2017-04-06 09:15:20",
        "orbit_uncertainty" : "8",
        "minimum_orbit_intersection" : ".0126299",
        "jupiter_tisserand_invariant" : "4.402",
        "epoch_osculation" : "2452350.5",
        "eccentricity" : ".4283007126427527",
        "semi_major_axis" : "1.517972772247502",
        "inclination" : "3.797745909913104",
        "ascending_node_longitude" : "169.9199691564073",
        "orbital_period" : "683.1159086469723",
        "perihelion_distance" : ".8678239521216018",
        "perihelion_argument" : "66.54242111063651",
        "aphelion_distance" : "2.168121592373402",
        "perihelion_time" : "2452397.828376106735",
        "mean_anomaly" : "335.0580901677847",
        "mean_motion" : ".5269969494826162",
        "equinox" : "J2000"
      }
    }, {
      "links" : {
        "self" : "https://api.nasa.gov/neo/rest/v1/neo/2141354?api_key=t0TVs3DtDT2H8Oy2Zy8m2eVrNsAVKAexjcZXUckd"
      },
      "neo_reference_id" : "2141354",
      "name" : "141354 (2002 AJ29)",
      "nasa_jpl_url" : "http://ssd.jpl.nasa.gov/sbdb.cgi?sstr=2141354",
      "absolute_magnitude_h" : 17.4,
      "estimated_diameter" : {
        "kilometers" : {
          "estimated_diameter_min" : 0.8801465209,
          "estimated_diameter_max" : 1.9680674509
        },
        "meters" : {
          "estimated_diameter_min" : 880.1465209007,
          "estimated_diameter_max" : 1968.067450894
        },
        "miles" : {
          "estimated_diameter_min" : 0.5468975238,
          "estimated_diameter_max" : 1.22290004
        },
        "feet" : {
          "estimated_diameter_min" : 2887.6199116319,
          "estimated_diameter_max" : 6456.914415591
        }
      },
      "is_potentially_hazardous_asteroid" : false,
      "close_approach_data" : [ {
        "close_approach_date" : "2002-03-22",
        "epoch_date_close_approach" : 1016784000000,
        "relative_velocity" : {
          "kilometers_per_second" : "13.0055966713",
          "kilometers_per_hour" : "46820.1480168028",
          "miles_per_hour" : "29092.2191941072"
        },
        "miss_distance" : {
          "astronomical" : "0.318876311",
          "lunar" : "124.0428771973",
          "kilometers" : "47703216",
          "miles" : "29641404"
        },
        "orbiting_body" : "Earth"
      } ],
      "orbital_data" : {
        "orbit_id" : "159",
        "orbit_determination_date" : "2017-08-01 06:18:44",
        "orbit_uncertainty" : "0",
        "minimum_orbit_intersection" : ".0913315",
        "jupiter_tisserand_invariant" : "3.700",
        "epoch_osculation" : "2458000.5",
        "eccentricity" : ".4504214012581437",
        "semi_major_axis" : "1.989267481215513",
        "inclination" : "10.91643992709939",
        "ascending_node_longitude" : "203.9717807213424",
        "orbital_period" : "1024.797840827644",
        "perihelion_distance" : "1.093258834849164",
        "perihelion_argument" : ".5231210551573485",
        "aphelion_distance" : "2.885276127581863",
        "perihelion_time" : "2458511.469338110917",
        "mean_anomaly" : "180.5021962464618",
        "mean_motion" : ".3512887963437335",
        "equinox" : "J2000"
      }
    } ]
  }
}